[{"OBJECT_NAME":"STARLINK-32079","OBJECT_ID":"2024-136H","EPOCH":"2026-03-09T10:21:28.830816","MEAN_MOTION":15.30194556,"ECCENTRICITY":0.00011689,"INCLINATION":53.1607,"RA_OF_ASC_NODE":76.9622,"ARG_OF_PERICENTER":76.0991,"MEAN_ANOMALY":284.014,"EPHEMERIS_TYPE":0,"CLASSIFICATION_TYPE":"U","NORAD_CAT_ID":60336,"ELEMENT_SET_NO":999,"REV_AT_EPOCH":8962,"BSTAR":3.3340342e-5,"MEAN_MOTION_DOT":6.28e-6,"MEAN_MOTION_DDOT":0},{"OBJECT_NAME":"CZ-6A DEB","OBJECT_ID":"2024-140RH","EPOCH":"2026-03-09T12:32:13.567200","MEAN_MOTION":15.23024459,"ECCENTRICITY":0.01073082,"INCLINATION":88.6757,"RA_OF_ASC_NODE":253.1302,"ARG_OF_PERICENTER":74.0491,"MEAN_ANOMALY":287.2547,"EPHEMERIS_TYPE":0,"CLASSIFICATION_TYPE":"U","NORAD_CAT_ID":61163,"ELEMENT_SET_NO":999,"REV_AT_EPOCH":8457,"BSTAR":0.0019108924,"MEAN_MOTION_DOT":0.00053105,"MEAN_MOTION_DDOT":0}]
